
 1 90030U RELEAS14 00051.38558242 +.01672663  94000-5  22520-2 4 0035                                                                                                                                                                                                                                                                                                                                                                                                                                                           
 2 90030  28.5475 124.9280 0081002 156.8669 205.7976 16.0204499601011                                                                                                                                                                                                                                                                                                                                                                                                                                                           

         0.0000000       16.0204572        0.0081002       28.5475000      124.9280000      156.8669000      205.7976000
      2700.0000000       16.0270771        0.0077651       28.5473158      110.6478691      179.6589372      232.9371384
      5400.0000000       16.0337861        0.0074318       28.5473139       96.3535423      203.0613001      264.0006636
      8100.0000000       16.0406221        0.0071314       28.5475560       82.0455349      227.0833168      299.0491621
     10800.0000000       16.0476161        0.0068913       28.5477700       67.7237561      251.6076249      338.2913767
     13500.0000000       16.0548665        0.0067259       28.5477748       53.3873704      276.4014850       22.1008704
     16200.0000000       16.0624872        0.0066344       28.5476398       39.0353378      301.1632149       70.9914081
     18900.0000000       16.0705972        0.0066001       28.5475042       24.6668028      325.6082615      125.5392792
     21600.0000000       16.0792895        0.0065960       28.5473326       10.2808742      349.5401181      186.3108947
     24300.0000000       16.0886092        0.0065912       28.5469623      355.8761704       12.8803210      253.7927292
     27000.0000000       16.0985562        0.0065570       28.5464286      341.4508732       35.6445378      328.4055547
     29700.0000000       16.1091374        0.0064690       28.5459846      327.0036532       57.9255241       50.4790768
     32400.0000000       16.1203740        0.0063090       28.5456607      312.5337122       79.8575780      140.3176335
     35100.0000000       16.1323465        0.0060660       28.5451717      298.0397068      101.6256332      238.2058125
     37800.0000000       16.1451476        0.0057380       28.5444807      283.5192788      123.4666166      344.4391777
     40500.0000000       16.1588836        0.0053345       28.5440013      268.9702578      145.6715816       99.3278293
     43200.0000000       16.1736544        0.0048773       28.5439381      254.3913425      168.5887882      223.1885132


 1 90031U RELEAS14 00051.38558242 +.00168784  00000 0  70845-3 4 0046                                                                                                                                                                                                                                                                                                                                                                                                                                                           
 2 90031  63.9976   6.4832 7509563 239.3244 315.9903  2.0525984300303                                                                                                                                                                                                                                                                                                                                                                                                                                                           

         0.0000000        2.0525994        0.7509563       63.9976000        6.4832000      239.3244000      315.9903000
      2700.0000000        2.0528589        0.7510700       64.0011394        6.1756624      239.2956896      261.5024925
      5400.0000000        2.0531287        0.7512139       63.9998248        5.8632529      239.2753070      207.1757894
      8100.0000000        2.0534192        0.7513132       63.9939308        5.5443845      239.2630434      153.0282930
     10800.0000000        2.0537265        0.7513368       63.9857576        5.2211865      239.2552620       99.0833511
     13500.0000000        2.0540337        0.7512928       63.9781591        4.8972608      239.2474587       45.3546194
     16200.0000000        2.0543336        0.7512189       63.9736675        4.5764685      239.2354008      351.8429320
     18900.0000000        2.0546429        0.7511748       63.9735409        4.2615733      239.2167278      298.5465500
     21600.0000000        2.0550033        0.7512216       63.9765454        3.9519450      239.1934550      245.4761794
     24300.0000000        2.0554846        0.7513716       63.9786284        3.6418509      239.1727717      192.6742290
     27000.0000000        2.0562059        0.7515450       63.9754547        3.3232314      239.1620693      140.2510972
     29700.0000000        2.0572824        0.7516128       63.9667616        2.9933007      239.1604495       88.4210011
     32400.0000000        2.0585694        0.7515304       63.9573083        2.6589441      239.1572517       37.4139408
     35100.0000000        2.0597588        0.7513923       63.9522109        2.3309859      239.1420936      347.2712863
     37800.0000000        2.0608530        0.7513247       63.9518064        2.0136838      239.1159270      297.8997917
     40500.0000000        2.0621954        0.7513573       63.9520311        1.7014389      239.0899613      249.3167868
     43200.0000000        2.0645749        0.7513782       63.9492065        1.3857171      239.0742559      201.9109430


 1 90032U RELEAS14 00051.38558242 +.00332394  00000 0  96401-4 4 0062                                                                                                                                                                                                                                                                                                                                                                                                                                                           
 2 90032  63.8221 352.9474 7190794 239.0801 307.3271  2.4861841700210                                                                                                                                                                                                                                                                                                                                                                                                                                                           

         0.0000000        2.4861853        0.7190794       63.8221000      352.9474000      239.0801000      307.3271000
      2700.0000000        2.4904758        0.7189024       63.8217921      352.5497166      239.0605621      186.6796950
      5400.0000000        2.4986095        0.7184338       63.8181676      352.1456975      239.0493248       70.0840839
      8100.0000000        2.5120717        0.7175115       63.8127485      351.7352318      239.0431458      320.7675227
     10800.0000000        2.5291920        0.7162528       63.8075110      351.3202706      239.0368544      221.9656624
     13500.0000000        2.5464818        0.7149420       63.8040015      350.9034733      239.0264418      134.9547394
     16200.0000000        2.5623675        0.7137382       63.8027327      350.4870256      239.0098401       59.1386378
     18900.0000000        2.5785817        0.7125623       63.8030126      350.0712417      238.9887666      353.9628228
     21600.0000000        2.6007842        0.7110276       63.8029762      349.6530369      238.9682497      301.2568883
     24300.0000000        2.6421563        0.7081461       63.8002598      349.2251763      238.9539583      268.9269218
     27000.0000000        2.7246524        0.7022587       63.7925241      348.7771685      238.9466029      277.2586700
     29700.0000000        2.8574380        0.6927405       63.7823943      348.3011490      238.9512411      358.6075423
     32400.0000000        3.0133211        0.6816518       63.7724719      347.7946555      238.9442064      179.6332127
     35100.0000000        3.1667835        0.6709138       63.7658817      347.2609726      238.9277516      105.2098056
     37800.0000000        3.3399003        0.6590858       63.7635580      346.6984282      238.9182811      138.3898266
     40500.0000000        3.5834498        0.6428191       63.7590577      346.0896872      238.9015970      309.0857756
     43200.0000000        3.9706583        0.6176579       63.7526855      345.4057109      238.8959741      327.8296074

